OEDF 041200Z VRB02KT 9999 SCT040 27/11 Q1012 NOSIG
OEDF 041100Z 31004KT 9999 FEW020 BKN040 25/12 Q1013 NOSIG
OEDF 041000Z 29010KT 8000 FEW025 BKN040 26/11 Q1014 NOSIG
OEDF 040900Z 27012KT 9999 BKN040 27/10 Q1015 NOSIG
OEDF 040800Z 23005KT 9999 SCT040 OVC080 24/10 Q1015 NOSIG
OEDF 040700Z 24007KT 9999 SCT035 OVC080 21/05 Q1016 RERA NOSIG
OEDF 040600Z 25004KT 9999 SCT035 OVC080 21/05 Q1016 NOSIG
OEDF 040500Z VRB03KT 9999 FEW040 OVC080 19/06 Q1015 NOSIG
OEDF 040400Z 31005KT 9999 SCT040 OVC080 18/06 Q1014 NOSIG
OEDF 040300Z 00000KT CAVOK 17/06 Q1013 NOSIG
OEDF 040200Z 04005KT CAVOK 17/05 Q1013 NOSIG
OEDF 040100Z 18004KT CAVOK 17/05 Q1012 NOSIG
OEDF 040000Z 20004KT CAVOK 17/05 Q1011 NOSIG
OEDF 032300Z 21005KT CAVOK 17/06 Q1012 NOSIG
OEDF 032200Z 19005KT CAVOK 18/07 Q1012 NOSIG
OEDF 032100Z 19005KT CAVOK 18/07 Q1012 NOSIG
OEDF 032000Z VRB03KT CAVOK 18/08 Q1013 NOSIG
OEDF 031900Z 00000KT CAVOK 19/08 Q1014 NOSIG
OEDF 031800Z VRB02KT CAVOK 19/08 Q1014 NOSIG
OEDF 031700Z 04009KT 9999 FEW040 BKN100 21/06 Q1014 NOSIG
OEDF 031600Z 02010KT 9999 SCT040 BKN100 21/05 Q1014 NOSIG
OEDF 031500Z 02011KT 9999 SCT040 BKN100 24/00 Q1013 NOSIG
OEDF 031400Z 01013KT CAVOK 26/03 Q1012 NOSIG
OEDF 031300Z 36008KT CAVOK 29/M04 Q1012 NOSIG
OEDF 031200Z 32007KT CAVOK 28/M03 Q1012 NOSIG
OEDF 031100Z 33006KT CAVOK 28/M02 Q1012 NOSIG
OEDF 031000Z 32008KT CAVOK 28/M02 Q1013 NOSIG
OEDF 030900Z 30006KT CAVOK 26/M02 Q1015 NOSIG
OEDF 030800Z 30006KT CAVOK 26/M02 Q1016 NOSIG
OEDF 030700Z 28007KT CAVOK 23/02 Q1016 NOSIG
OEDF 030600Z 27005KT CAVOK 19/04 Q1016 NOSIG
OEDF 030500Z 29005KT CAVOK 15/04 Q1015 NOSIG
OEDF 030400Z 21003KT CAVOK 12/04 Q1015 NOSIG
OEDF 030300Z 28004KT CAVOK 13/03 Q1014 NOSIG
OEDF 030200Z 28005KT CAVOK 12/04 Q1013 NOSIG
OEDF 030100Z 22004KT CAVOK 12/04 Q1013 NOSIG
OEDF 030000Z 29004KT CAVOK 13/06 Q1013 NOSIG
OEDF 022300Z 28006KT CAVOK 14/06 Q1014 NOSIG
OEDF 022200Z 28005KT CAVOK 14/06 Q1014 NOSIG
OEDF 022100Z 29004KT CAVOK 15/07 Q1015 NOSIG
OEDF 022000Z 29003KT CAVOK 15/07 Q1015 NOSIG
OEDF 021900Z 00000KT CAVOK 17/07 Q1016 NOSIG
OEDF 021800Z 01002KT CAVOK 17/06 Q1016 NOSIG
OEDF 021700Z 01006KT CAVOK 18/07 Q1016 NOSIG
OEDF 021600Z 01006KT CAVOK 20/06 Q1015 NOSIG
OEDF 021500Z 01007KT CAVOK 22/04 Q1015 NOSIG
OEDF 021400Z 35011KT CAVOK 24/02 Q1015 NOSIG
OEDF 021300Z 35015KT CAVOK 25/01 Q1015 NOSIG
OEDF 021200Z 34015KT CAVOK 26/03 Q1015 NOSIG
OEDF 021100Z 35013KT CAVOK 26/02 Q1016 NOSIG
OEDF 027600Z 01006KT CAVOK 20/06 Q1015 NOSIG
OEDF 021000Z 33013KT CAVOK 26/02 Q1017 NOSIG
OEDF 020900Z 33014KT CAVOK 25/03 Q1017 NOSIG
OEDF 020800Z 33011KT CAVOK 23/04 Q1018 NOSIG
OEDF 020700Z 33012KT CAVOK 22/03 Q1019 NOSIG
OEDF 020600Z 31011KT CAVOK 21/04 Q1019 NOSIG
OEDF 020500Z 31004KT CAVOK 15/07 Q1018 NOSIG
OEDF 020400Z 31006KT CAVOK 13/06 Q1017 NOSIG
OEDF 020300Z 29006KT CAVOK 13/07 Q1017 NOSIG
OEDF 020200Z 29007KT CAVOK 14/07 Q1017 NOSIG
OEDF 020100Z 28007KT CAVOK 14/07 Q1016 NOSIG
OEDF 020000Z 28007KT CAVOK 14/08 Q1016 NOSIG
OEDF 012300Z 27006KT CAVOK 15/09 Q1016 NOSIG
OEDF 012200Z 28005KT CAVOK 16/10 Q1017 NOSIG
OEDF 012100Z 28005KT CAVOK 17/10 Q1017 NOSIG
OEDF 012000Z 29004KT CAVOK 17/09 Q1017 NOSIG
OEDF 011900Z 33006KT CAVOK 19/09 Q1018 NOSIG
OEDF 011800Z 34007KT CAVOK 18/09 Q1018 NOSIG
OEDF 011700Z 34008KT CAVOK 19/10 Q1017 NOSIG
OEDF 011600Z 36009KT CAVOK 20/09 Q1017 NOSIG
OEDF 011500Z 01011KT CAVOK 22/05 Q1016 NOSIG
OEDF 011400Z 01015KT CAVOK 24/03 Q1015 NOSIG
OEDF 011300Z 01018KT CAVOK 25/01 Q1015 NOSIG
OEDF 011200Z 01017KT CAVOK 26/01 Q1015 NOSIG
OEDF 011100Z 02019KT CAVOK 26/02 Q1016 NOSIG
OEDF 011000Z 02021KT CAVOK 26/02 Q1016 NOSIG
OEDF 010900Z 01020KT CAVOK 26/02 Q1017 NOSIG
OEDF 010800Z 01019KT CAVOK 25/03 Q1017 NOSIG
OEDF 010700Z 01016KT CAVOK 24/05 Q1018 NOSIG
OEDF 010600Z 35008KT CAVOK 20/11 Q1017 NOSIG
OEDF 010500Z 32007KT CAVOK 18/11 Q1017 NOSIG
